[
    {
        "Altitude(m)": 702684.2636387553,
        "Argument of Periapsis(deg)": 0.0,
        "Eccentricity": 0.0,
        "Inclination(deg)": 45.0,
        "Latitude(deg)": 11.498926314441267,
        "Longitude(deg)": -56.64317564921994,
        "Mean Anomaly(deg)": -196.36359999999996,
        "RAAN(deg)": 235.0,
        "Satellite Name": "Constellation 1 1044",
        "Satellite Number": 1044,
        "Semi-Major Axis(m)": 7083131.272910544,
        "Time(s)": 0
    },
    {
        "Altitude(m)": 702684.4170915312,
        "Argument of Periapsis(deg)": 5.994800624540561e-05,
        "Eccentricity": 0.0,
        "Inclination(deg)": 45.0,
        "Latitude(deg)": 11.456604348423033,
        "Longitude(deg)": -56.60265808055943,
        "Mean Anomaly(deg)": -196.30289885975012,
        "RAAN(deg)": 234.99994341083442,
        "Satellite Name": "Constellation 1 1044",
        "Satellite Number": 1044,
        "Semi-Major Axis(m)": 7083131.272910544,
        "Time(s)": 1
    },
    {
        "Altitude(m)": 702684.5896216641,
        "Argument of Periapsis(deg)": 0.00011989601249081122,
        "Eccentricity": 0.0,
        "Inclination(deg)": 45.0,
        "Latitude(deg)": 11.414275492437465,
        "Longitude(deg)": -56.56215381740248,
        "Mean Anomaly(deg)": -196.24219771950018,
        "RAAN(deg)": 234.99988682166887,
        "Satellite Name": "Constellation 1 1044",
        "Satellite Number": 1044,
        "Semi-Major Axis(m)": 7083131.272910544,
        "Time(s)": 2
    },
    {
        "Altitude(m)": 702684.7812466467,
        "Argument of Periapsis(deg)": 0.00017984401873621686,
        "Eccentricity": 0.0,
        "Inclination(deg)": 45.0,
        "Latitude(deg)": 11.37193977480782,
        "Longitude(deg)": -56.52166280770131,
        "Mean Anomaly(deg)": -196.18149657925034,
        "RAAN(deg)": 234.99983023250326,
        "Satellite Name": "Constellation 1 1044",
        "Satellite Number": 1044,
        "Semi-Major Axis(m)": 7083131.272910544,
        "Time(s)": 3
    },
    {
        "Altitude(m)": 702684.9919838993,
        "Argument of Periapsis(deg)": 0.00023979202498162244,
        "Eccentricity": 0.0,
        "Inclination(deg)": 45.0,
        "Latitude(deg)": 11.329597223831486,
        "Longitude(deg)": -56.48118499943376,
        "Mean Anomaly(deg)": -196.1207954390004,
        "RAAN(deg)": 234.9997736433377,
        "Satellite Name": "Constellation 1 1044",
        "Satellite Number": 1044,
        "Semi-Major Axis(m)": 7083131.272910544,
        "Time(s)": 4
    },
    {
        "Altitude(m)": 702685.2218507519,
        "Argument of Periapsis(deg)": 0.00029974003122702807,
        "Eccentricity": 0.0,
        "Inclination(deg)": 45.0,
        "Latitude(deg)": 11.287247867780598,
        "Longitude(deg)": -56.440720340604145,
        "Mean Anomaly(deg)": -196.06009429875056,
        "RAAN(deg)": 234.99971705417215,
        "Satellite Name": "Constellation 1 1044",
        "Satellite Number": 1044,
        "Semi-Major Axis(m)": 7083131.272910544,
        "Time(s)": 5
    },
    {
        "Altitude(m)": 702685.4708644649,
        "Argument of Periapsis(deg)": 0.00035968803747243373,
        "Eccentricity": 0.0,
        "Inclination(deg)": 45.0,
        "Latitude(deg)": 11.244891734901593,
        "Longitude(deg)": -56.40026877924237,
        "Mean Anomaly(deg)": -195.99939315850057,
        "RAAN(deg)": 234.99966046500657,
        "Satellite Name": "Constellation 1 1044",
        "Satellite Number": 1044,
        "Semi-Major Axis(m)": 7083131.272910544,
        "Time(s)": 6
    },
    {
        "Altitude(m)": 702685.7390422078,
        "Argument of Periapsis(deg)": 0.00041963604371783933,
        "Eccentricity": 0.0,
        "Inclination(deg)": 45.0,
        "Latitude(deg)": 11.202528853415675,
        "Longitude(deg)": -56.35983043150162,
        "Mean Anomaly(deg)": -195.93869201825072,
        "RAAN(deg)": 234.99960387584102,
        "Satellite Name": "Constellation 1 1044",
        "Satellite Number": 1044,
        "Semi-Major Axis(m)": 7083131.272910544,
        "Time(s)": 7
    },
    {
        "Altitude(m)": 702686.0264010762,
        "Argument of Periapsis(deg)": 0.0004795840499632449,
        "Eccentricity": 0.0,
        "Inclination(deg)": 45.0,
        "Latitude(deg)": 11.160159251519,
        "Longitude(deg)": -56.319404909269565,
        "Mean Anomaly(deg)": -195.8779908780008,
        "RAAN(deg)": 234.9995472866754,
        "Satellite Name": "Constellation 1 1044",
        "Satellite Number": 1044,
        "Semi-Major Axis(m)": 7083131.272910544,
        "Time(s)": 8
    },
    {
        "Altitude(m)": 702686.3329580778,
        "Argument of Periapsis(deg)": 0.0005395320562086505,
        "Eccentricity": 0.0,
        "Inclination(deg)": 45.0,
        "Latitude(deg)": 11.117782957382392,
        "Longitude(deg)": -56.27899232875079,
        "Mean Anomaly(deg)": -195.81728973775088,
        "RAAN(deg)": 234.99949069750986,
        "Satellite Name": "Constellation 1 1044",
        "Satellite Number": 1044,
        "Semi-Major Axis(m)": 7083131.272910544,
        "Time(s)": 9
    },
    {
        "Altitude(m)": 702686.6587301402,
        "Argument of Periapsis(deg)": 0.0005994800624540561,
        "Eccentricity": 0.0,
        "Inclination(deg)": 45.0,
        "Latitude(deg)": 11.07539999915176,
        "Longitude(deg)": -56.23859263807853,
        "Mean Anomaly(deg)": -195.756588597501,
        "RAAN(deg)": 234.99943410834427,
        "Satellite Name": "Constellation 1 1044",
        "Satellite Number": 1044,
        "Semi-Major Axis(m)": 7083131.272910544,
        "Time(s)": 10
    },
    {
        "Altitude(m)": 702687.0037341123,
        "Argument of Periapsis(deg)": 0.0006594280686994618,
        "Eccentricity": 0.0,
        "Inclination(deg)": 45.0,
        "Latitude(deg)": 11.033010404947822,
        "Longitude(deg)": -56.19820578541144,
        "Mean Anomaly(deg)": -195.69588745725108,
        "RAAN(deg)": 234.99937751917872,
        "Satellite Name": "Constellation 1 1044",
        "Satellite Number": 1044,
        "Semi-Major Axis(m)": 7083131.272910544,
        "Time(s)": 11
    },
    {
        "Altitude(m)": 702687.3679867601,
        "Argument of Periapsis(deg)": 0.0007193760749448675,
        "Eccentricity": 0.0,
        "Inclination(deg)": 45.0,
        "Latitude(deg)": 10.990614202866883,
        "Longitude(deg)": -56.15783171893394,
        "Mean Anomaly(deg)": -195.63518631700123,
        "RAAN(deg)": 234.99932093001317,
        "Satellite Name": "Constellation 1 1044",
        "Satellite Number": 1044,
        "Semi-Major Axis(m)": 7083131.272910544,
        "Time(s)": 12
    },
    {
        "Altitude(m)": 702687.7515047701,
        "Argument of Periapsis(deg)": 0.000779324081190273,
        "Eccentricity": 0.0,
        "Inclination(deg)": 45.0,
        "Latitude(deg)": 10.94821142098015,
        "Longitude(deg)": -56.117470386855786,
        "Mean Anomaly(deg)": -195.5744851767513,
        "RAAN(deg)": 234.99926434084762,
        "Satellite Name": "Constellation 1 1044",
        "Satellite Number": 1044,
        "Semi-Major Axis(m)": 7083131.272910544,
        "Time(s)": 13
    },
    {
        "Altitude(m)": 702688.1543047372,
        "Argument of Periapsis(deg)": 0.0008392720874356787,
        "Eccentricity": 0.0,
        "Inclination(deg)": 45.0,
        "Latitude(deg)": 10.90580208733457,
        "Longitude(deg)": -56.07712173741219,
        "Mean Anomaly(deg)": -195.51378403650136,
        "RAAN(deg)": 234.999207751682,
        "Satellite Name": "Constellation 1 1044",
        "Satellite Number": 1044,
        "Semi-Major Axis(m)": 7083131.272910544,
        "Time(s)": 14
    },
    {
        "Altitude(m)": 702688.576403188,
        "Argument of Periapsis(deg)": 0.0008992200936810842,
        "Eccentricity": 0.0,
        "Inclination(deg)": 45.0,
        "Latitude(deg)": 10.863386229952221,
        "Longitude(deg)": -56.036785886960594,
        "Mean Anomaly(deg)": -195.45308289625154,
        "RAAN(deg)": 234.99915116251643,
        "Satellite Name": "Constellation 1 1044",
        "Satellite Number": 1044,
        "Semi-Major Axis(m)": 7083131.272910544,
        "Time(s)": 15
    },
    {
        "Altitude(m)": 702689.0178165555,
        "Argument of Periapsis(deg)": 0.0009591680999264898,
        "Eccentricity": 0.0,
        "Inclination(deg)": 45.0,
        "Latitude(deg)": 10.820963876831186,
        "Longitude(deg)": -55.99646244759262,
        "Mean Anomaly(deg)": -195.39238175600156,
        "RAAN(deg)": 234.99909457335087,
        "Satellite Name": "Constellation 1 1044",
        "Satellite Number": 1044,
        "Semi-Major Axis(m)": 7083131.272910544,
        "Time(s)": 16
    },
    {
        "Altitude(m)": 702689.478561196,
        "Argument of Periapsis(deg)": 0.0010191161061718953,
        "Eccentricity": 0.0,
        "Inclination(deg)": 45.0,
        "Latitude(deg)": 10.778535055944936,
        "Longitude(deg)": -55.95615153571617,
        "Mean Anomaly(deg)": -195.3316806157517,
        "RAAN(deg)": 234.99903798418532,
        "Satellite Name": "Constellation 1 1044",
        "Satellite Number": 1044,
        "Semi-Major Axis(m)": 7083131.272910544,
        "Time(s)": 17
    },
    {
        "Altitude(m)": 702689.9586533862,
        "Argument of Periapsis(deg)": 0.001079064112417301,
        "Eccentricity": 0.0,
        "Inclination(deg)": 45.0,
        "Latitude(deg)": 10.7360997952428,
        "Longitude(deg)": -55.91585309966723,
        "Mean Anomaly(deg)": -195.27097947550178,
        "RAAN(deg)": 234.99898139501977,
        "Satellite Name": "Constellation 1 1044",
        "Satellite Number": 1044,
        "Semi-Major Axis(m)": 7083131.272910544,
        "Time(s)": 18
    }
]